{"type":"Feature","properties":{"hash":"3eb9c4abebd0ad99","number":"237","street":"PAVILLION LN","unit":"","city":"BARNET","district":"CALEDONIA","region":"VT","postcode":"05821","id":""},"geometry":{"type":"Point","coordinates":[-72.143537,44.3003832]}}
{"type":"Feature","properties":{"hash":"e2ca91f809b92184","number":"96","street":"COLCHESTER AVE","unit":"","city":"BURLINGTON","district":"CHITTENDEN","region":"VT","postcode":"05401","id":""},"geometry":{"type":"Point","coordinates":[-73.19614,44.4810106]}}
{"type":"Feature","properties":{"hash":"5aaa28133d560345","number":"40","street":"NORTH SHORE LN","unit":"","city":"ORWELL","district":"ADDISON","region":"VT","postcode":"05760","id":""},"geometry":{"type":"Point","coordinates":[-73.2657612,43.7620546]}}
{"type":"Feature","properties":{"hash":"6dec5c6670cc9c3b","number":"48","street":"COMMUNITY DR","unit":"","city":"DERBY","district":"ORLEANS","region":"VT","postcode":"05855","id":""},"geometry":{"type":"Point","coordinates":[-72.1681934,44.9509114]}}
{"type":"Feature","properties":{"hash":"916df905129266fc","number":"563","street":"S   WARDSBORO RD","unit":"","city":"NEWFANE","district":"WINDHAM","region":"VT","postcode":"05345","id":""},"geometry":{"type":"Point","coordinates":[-72.698129,43.0070334]}}
{"type":"Feature","properties":{"hash":"32db645b096bc00a","number":"184","street":"HIGLEY HILL RD","unit":"","city":"WILMINGTON","district":"WINDHAM","region":"VT","postcode":"05363","id":""},"geometry":{"type":"Point","coordinates":[-72.8357175,42.9021503]}}
{"type":"Feature","properties":{"hash":"58f03f443e84896c","number":"41","street":"HAYWARD ST","unit":"","city":"BURLINGTON","district":"CHITTENDEN","region":"VT","postcode":"05401","id":""},"geometry":{"type":"Point","coordinates":[-73.2133082,44.4677665]}}
{"type":"Feature","properties":{"hash":"d04e0218b840ac73","number":"118","street":"CREEKS EDGE DR","unit":"","city":"WILLISTON","district":"CHITTENDEN","region":"VT","postcode":"05495","id":""},"geometry":{"type":"Point","coordinates":[-73.0669294,44.4431212]}}
{"type":"Feature","properties":{"hash":"1ff694ccbeb5b2e9","number":"24","street":"CARVER ST","unit":"","city":"BRANDON","district":"RUTLAND","region":"VT","postcode":"05733","id":""},"geometry":{"type":"Point","coordinates":[-73.0844037,43.7964056]}}
{"type":"Feature","properties":{"hash":"34bdbf0f5fe263ee","number":"0","street":"SFH","unit":"","city":"WATERBURY","district":"WASHINGTON","region":"VT","postcode":"05676","id":""},"geometry":{"type":"Point","coordinates":[-72.7599102,44.3890322]}}
{"type":"Feature","properties":{"hash":"8d1654570f48259c","number":"1529","street":"SANDERSON HILL RD","unit":"","city":"CHARLESTON","district":"ORLEANS","region":"VT","postcode":"05872","id":""},"geometry":{"type":"Point","coordinates":[-72.0744603,44.8586271]}}
{"type":"Feature","properties":{"hash":"c0b75037d7c75e31","number":"0","street":"JANES RD","unit":"","city":"SWANTON","district":"FRANKLIN","region":"VT","postcode":"05488","id":""},"geometry":{"type":"Point","coordinates":[-73.1428979,44.8792736]}}
{"type":"Feature","properties":{"hash":"8d76429a32ded7ff","number":"0","street":"GREENS RD","unit":"","city":"GROTON","district":"CALEDONIA","region":"VT","postcode":"05046","id":""},"geometry":{"type":"Point","coordinates":[-72.2678764,44.1923002]}}
{"type":"Feature","properties":{"hash":"d294369545748a06","number":"559","street":"COLE HILL RD","unit":"","city":"MORRISTOWN","district":"LAMOILLE","region":"VT","postcode":"05661","id":""},"geometry":{"type":"Point","coordinates":[-72.6489119,44.5556311]}}
{"type":"Feature","properties":{"hash":"50113a3071a45134","number":"26","street":"MAIN ST","unit":"","city":"LUDLOW","district":"WINDSOR","region":"VT","postcode":"05149","id":""},"geometry":{"type":"Point","coordinates":[-72.6869959,43.3958256]}}
{"type":"Feature","properties":{"hash":"04b9e569f06e03a3","number":"176","street":"WHITECAP RD","unit":"","city":"COLCHESTER","district":"CHITTENDEN","region":"VT","postcode":"05446","id":""},"geometry":{"type":"Point","coordinates":[-73.2958999,44.5555586]}}
{"type":"Feature","properties":{"hash":"b5cf2f2d0a44e9b3","number":"57","street":"THIRD ST","unit":"","city":"BERLIN","district":"WASHINGTON","region":"VT","postcode":"05602","id":""},"geometry":{"type":"Point","coordinates":[-72.5936846,44.2422183]}}
{"type":"Feature","properties":{"hash":"1beba10eac9c9a39","number":"32","street":"CORNELL WAY","unit":"","city":"WILMINGTON","district":"WINDHAM","region":"VT","postcode":"05363","id":""},"geometry":{"type":"Point","coordinates":[-72.8272568,42.8573841]}}
{"type":"Feature","properties":{"hash":"f367c2535ce3f6dc","number":"228","street":"VT ROUTE 105","unit":"","city":"SHELDON","district":"FRANKLIN","region":"VT","postcode":"05483","id":""},"geometry":{"type":"Point","coordinates":[-73.0151702,44.8868476]}}
{"type":"Feature","properties":{"hash":"1b2134645e195b40","number":"0","street":"BLOOD HILL RD","unit":"","city":"WEST WINDSOR","district":"WINDSOR","region":"VT","postcode":"05089","id":""},"geometry":{"type":"Point","coordinates":[-72.4881781,43.5274727]}}
{"type":"Feature","properties":{"hash":"a42df71815147f28","number":"2","street":"LIBERTY ST","unit":"","city":"MONTPELIER","district":"WASHINGTON","region":"VT","postcode":"05602","id":""},"geometry":{"type":"Point","coordinates":[-72.5700737,44.2624797]}}
{"type":"Feature","properties":{"hash":"5cd4f1a9cb627ebb","number":"3230","street":"VT ROUTE 31","unit":"","city":"POULTNEY","district":"RUTLAND","region":"VT","postcode":"05764","id":""},"geometry":{"type":"Point","coordinates":[-73.2431883,43.4712345]}}
{"type":"Feature","properties":{"hash":"a56b531038f3d825","number":"221","street":"PARK ST","unit":"","city":"BURLINGTON","district":"CHITTENDEN","region":"VT","postcode":"05401","id":""},"geometry":{"type":"Point","coordinates":[-73.2196161,44.4867912]}}
{"type":"Feature","properties":{"hash":"4b5466171e64c5d1","number":"1860","street":"SLACK ST","unit":"","city":"PEACHAM","district":"CALEDONIA","region":"VT","postcode":"05862","id":""},"geometry":{"type":"Point","coordinates":[-72.193925,44.3628249]}}
{"type":"Feature","properties":{"hash":"646657e04915a065","number":"193","street":"BARRE HL","unit":"","city":"PLAINFIELD","district":"WASHINGTON","region":"VT","postcode":"05667","id":""},"geometry":{"type":"Point","coordinates":[-72.4243405,44.2727331]}}
{"type":"Feature","properties":{"hash":"c3038de613e1819f","number":"39","street":"APPLE TREE RD","unit":"","city":"FAIRFAX","district":"FRANKLIN","region":"VT","postcode":"05454","id":""},"geometry":{"type":"Point","coordinates":[-73.0152941,44.7050425]}}
{"type":"Feature","properties":{"hash":"2923fe3abd8e758c","number":"427","street":"GRANBY RD","unit":"","city":"GUILDHALL","district":"ESSEX","region":"VT","postcode":"05905","id":""},"geometry":{"type":"Point","coordinates":[-71.6088647,44.5579162]}}
{"type":"Feature","properties":{"hash":"1103b0c5dc261e64","number":"88","street":"HATHAWAY POINT RD","unit":"","city":"SAINT ALBANS TOWN","district":"FRANKLIN","region":"VT","postcode":"05478","id":""},"geometry":{"type":"Point","coordinates":[-73.1539167,44.8095873]}}
{"type":"Feature","properties":{"hash":"71fd60da989927ac","number":"29","street":"ALLY DR","unit":"","city":"SWANTON","district":"FRANKLIN","region":"VT","postcode":"05488","id":""},"geometry":{"type":"Point","coordinates":[-73.1312087,44.9186147]}}
{"type":"Feature","properties":{"hash":"8bf12a40e6c7c56d","number":"24","street":"W   MAIN ST","unit":"","city":"NEWPORT CITY","district":"ORLEANS","region":"VT","postcode":"05855","id":""},"geometry":{"type":"Point","coordinates":[-72.2174138,44.9325068]}}
{"type":"Feature","properties":{"hash":"c8ebbf07d2a46d18","number":"94","street":"SCANDIA VILLAGE RD","unit":"","city":"WARDSBORO","district":"WINDHAM","region":"VT","postcode":"05360","id":""},"geometry":{"type":"Point","coordinates":[-72.8657415,43.0278787]}}
{"type":"Feature","properties":{"hash":"9589a25253b82241","number":"64","street":"LAKEWOOD PKWY","unit":"","city":"BURLINGTON","district":"CHITTENDEN","region":"VT","postcode":"05408","id":""},"geometry":{"type":"Point","coordinates":[-73.2440507,44.5048314]}}
{"type":"Feature","properties":{"hash":"d6542420c6f55b28","number":"83","street":"CENTER TRAILER PARK RD","unit":"","city":"WATERBURY","district":"WASHINGTON","region":"VT","postcode":"05676","id":""},"geometry":{"type":"Point","coordinates":[-72.7061233,44.3598674]}}
{"type":"Feature","properties":{"hash":"881a136930bfbe23","number":"50","street":"SLATE LN","unit":"","city":"LYNDON","district":"CALEDONIA","region":"VT","postcode":"05851","id":""},"geometry":{"type":"Point","coordinates":[-71.9981093,44.5458396]}}
{"type":"Feature","properties":{"hash":"da88719b62429436","number":"55","street":"THE CLIFFS RD","unit":"","city":"WARREN","district":"WASHINGTON","region":"VT","postcode":"05674","id":""},"geometry":{"type":"Point","coordinates":[-72.8912146,44.1320365]}}
{"type":"Feature","properties":{"hash":"6af0fcaef14cb36f","number":"42","street":"SANDRA CIR","unit":"","city":"BURLINGTON","district":"CHITTENDEN","region":"VT","postcode":"05408","id":""},"geometry":{"type":"Point","coordinates":[-73.2487006,44.5214582]}}
{"type":"Feature","properties":{"hash":"59ac36b6970b4922","number":"283","street":"LAKE WAPANAKI RD","unit":"","city":"WOLCOTT","district":"LAMOILLE","region":"VT","postcode":"05680","id":""},"geometry":{"type":"Point","coordinates":[-72.3976578,44.5698029]}}
{"type":"Feature","properties":{"hash":"b626ffb3a188b0eb","number":"131","street":"CRESCENT ST","unit":"","city":"RUTLAND CITY","district":"RUTLAND","region":"VT","postcode":"05701","id":""},"geometry":{"type":"Point","coordinates":[-72.9857191,43.61498]}}
{"type":"Feature","properties":{"hash":"b8a8a234edb678bb","number":"803","street":"W   ECHO LAKE RD","unit":"","city":"CHARLESTON","district":"ORLEANS","region":"VT","postcode":"05872","id":""},"geometry":{"type":"Point","coordinates":[-71.9983579,44.8550856]}}
{"type":"Feature","properties":{"hash":"67e1b6962bf71fdb","number":"203","street":"WOODBURY RD","unit":"","city":"SPRINGFIELD","district":"WINDSOR","region":"VT","postcode":"05156","id":""},"geometry":{"type":"Point","coordinates":[-72.462988,43.3020431]}}
{"type":"Feature","properties":{"hash":"532abf240554e950","number":"425","street":"SHERWOOD FRST","unit":"","city":"LONDONDERRY","district":"WINDHAM","region":"VT","postcode":"05148","id":""},"geometry":{"type":"Point","coordinates":[-72.8427442,43.2308628]}}
{"type":"Feature","properties":{"hash":"8a62d7c6ad936d87","number":"115","street":"MIDDLE RD","unit":"","city":"SWANTON","district":"FRANKLIN","region":"VT","postcode":"05488","id":""},"geometry":{"type":"Point","coordinates":[-73.1389294,44.9100275]}}
{"type":"Feature","properties":{"hash":"32eddde2a53c9574","number":"1512","street":"STAGE RD","unit":"","city":"BENSON","district":"RUTLAND","region":"VT","postcode":"05743","id":""},"geometry":{"type":"Point","coordinates":[-73.3113117,43.6918338]}}
{"type":"Feature","properties":{"hash":"e77729f7b3d3d163","number":"111","street":"KENOLIE CAMPGROUND","unit":"","city":"NEWFANE","district":"WINDHAM","region":"VT","postcode":"05345","id":""},"geometry":{"type":"Point","coordinates":[-72.6402566,42.984845]}}
{"type":"Feature","properties":{"hash":"fa33724556f9ac01","number":"526","street":"SCHOOLHOUSE HILL RD","unit":"","city":"CLARENDON","district":"RUTLAND","region":"VT","postcode":"05777","id":""},"geometry":{"type":"Point","coordinates":[-73.0170072,43.5565846]}}
{"type":"Feature","properties":{"hash":"4df87bc1768ca1b0","number":"14","street":"BATTEN RD","unit":"","city":"TOPSHAM","district":"ORANGE","region":"VT","postcode":"05086","id":""},"geometry":{"type":"Point","coordinates":[-72.3136826,44.1166712]}}
{"type":"Feature","properties":{"hash":"84637b0cafbd2c97","number":"172","street":"WHITES PT","unit":"","city":"HUBBARDTON","district":"RUTLAND","region":"VT","postcode":"05733","id":""},"geometry":{"type":"Point","coordinates":[-73.2120086,43.7481227]}}
{"type":"Feature","properties":{"hash":"1d6abe251a513517","number":"2947","street":"US ROUTE 2","unit":"","city":"EAST MONTPELIER","district":"WASHINGTON","region":"VT","postcode":"05651","id":""},"geometry":{"type":"Point","coordinates":[-72.4870358,44.271115]}}
{"type":"Feature","properties":{"hash":"3e9ee0bff4e9b58d","number":"40","street":"PERPETUAL LN","unit":"","city":"RICHMOND","district":"CHITTENDEN","region":"VT","postcode":"05477","id":""},"geometry":{"type":"Point","coordinates":[-72.9420715,44.3897297]}}
{"type":"Feature","properties":{"hash":"b78491d3a437665c","number":"257","street":"WESTERN AVE","unit":"","city":"SAINT JOHNSBURY","district":"CALEDONIA","region":"VT","postcode":"05819","id":""},"geometry":{"type":"Point","coordinates":[-72.0248518,44.4165167]}}
